[{"OBJECT_NAME":"STARLINK-5946","OBJECT_ID":"2023-042E","EPOCH":"2026-03-09T22:26:29.670432","MEAN_MOTION":15.02542872,"ECCENTRICITY":0.00012305,"INCLINATION":43.005,"RA_OF_ASC_NODE":55.0933,"ARG_OF_PERICENTER":264.5792,"MEAN_ANOMALY":95.491,"EPHEMERIS_TYPE":0,"CLASSIFICATION_TYPE":"U","NORAD_CAT_ID":55990,"ELEMENT_SET_NO":999,"REV_AT_EPOCH":16294,"BSTAR":3.2179568e-5,"MEAN_MOTION_DOT":2.31e-6,"MEAN_MOTION_DDOT":0},{"OBJECT_NAME":"OBJECT F","OBJECT_ID":"2025-292F","EPOCH":"2026-03-09T22:41:00.950496","MEAN_MOTION":15.06065121,"ECCENTRICITY":0.00151037,"INCLINATION":97.6416,"RA_OF_ASC_NODE":145.7425,"ARG_OF_PERICENTER":346.7214,"MEAN_ANOMALY":13.3613,"EPHEMERIS_TYPE":0,"CLASSIFICATION_TYPE":"U","NORAD_CAT_ID":66998,"ELEMENT_SET_NO":999,"REV_AT_EPOCH":1351,"BSTAR":0.00047210602,"MEAN_MOTION_DOT":6.85e-5,"MEAN_MOTION_DDOT":0}]
